IRIDIUM 106             
1 41917U 17003A   24025.66340503  .00000261  00000+0  86022-4 0  9993
2 41917  86.3950  93.6073 0001814 101.3501 258.7899 14.34217965368005
IRIDIUM 103             
1 41918U 17003B   24025.23210984 -.00000252  00000+0 -96925-4 0  9991
2 41918  86.3948  93.6893 0002097  88.7425 271.4011 14.34216534367963
IRIDIUM 109             
1 41919U 17003C   24025.23845240  .00000103  00000+0  29721-4 0  9994
2 41919  86.3951  93.7323 0002352  90.5772 269.5693 14.34218024367934
IRIDIUM 102             
1 41920U 17003D   24025.55558231  .00000250  00000+0  82373-4 0  9997
2 41920  86.3950  93.5418 0002281  94.2211 265.9246 14.34218327368063
IRIDIUM 105             
1 41921U 17003E   24025.59610671  .00000544  00000+0  18699-3 0  9994
2 41921  86.3935  61.9234 0002186  90.5056 269.6390 14.34224876369925
IRIDIUM 104             
1 41922U 17003F   24025.56826764  .00000203  00000+0  65559-4 0  9994
2 41922  86.3950  93.5658 0002227  89.8456 270.2995 14.34218087368054
IRIDIUM 114             
1 41923U 17003G   24025.71414597  .00000109  00000+0  31834-4 0  9993
2 41923  86.3949  93.4913 0001900  99.1675 260.9736 14.34218008368074
IRIDIUM 108             
1 41924U 17003H   24025.53312893  .00000165  00000+0  51725-4 0  9993
2 41924  86.3928  61.8837 0001939  99.0122 261.1293 14.34218631369887
